QIANFAN-33              
1 61566U 24185Q   25239.13825516  .00000318  00000+0  22077-3 0  9998
2 61566  88.9750  90.8217 0005362 316.2010  43.8741 13.96418827 54149
QIANFAN-34              
1 61567U 24185R   25239.18791276  .00000286  00000+0  17813-3 0  9995
2 61567  88.9728  90.5219 0004812 326.3781  33.7093 14.02172319 54284
QIANFAN-35              
1 61568U 24185S   25239.19250344  .00000726  00000+0  28877-3 0  9994
2 61568  88.9752  89.5200 0004543 287.0921  72.9775 14.27685750 54838
QIANFAN-36              
1 61569U 24185T   25239.12083168  .00000089  00000+0  11062-3 0  9996
2 61569  88.9738  92.2717 0006455  12.5761 347.5552 13.55548488 53349
QIANFAN-37              
1 62238U 24232B   25239.22821008  .00000056  00000+0  68083-4 0  9997
2 62238  88.9936  52.1869 0002488  81.5789 278.5644 13.50960717 84655
QIANFAN-38              
1 62239U 24232C   25239.17903664  .00000047  00000+0  53855-4 0  9992
2 62239  88.9943  52.1004 0015801 140.5500 219.6805 13.50964748 84704
QIANFAN-39              
1 62240U 24232D   25239.14987429  .00000163  00000+0  62794-4 0  9993
2 62240  88.9944  49.6147 0018350  73.7897 286.5313 14.25236168 86063
QIANFAN-40              
1 62241U 24232E   25239.21192600  .00000049  00000+0  56918-4 0  9995
2 62241  88.9971  51.6512 0014635 147.3972 212.8086 13.50961345 85075
